[{"OBJECT_NAME":"STARLINK-34533","OBJECT_ID":"2025-142V","EPOCH":"2026-03-29T04:47:38.718816","MEAN_MOTION":14.98340169,"ECCENTRICITY":0.0002473,"INCLINATION":69.9993,"RA_OF_ASC_NODE":265.2442,"ARG_OF_PERICENTER":269.3707,"MEAN_ANOMALY":90.7168,"EPHEMERIS_TYPE":0,"CLASSIFICATION_TYPE":"U","NORAD_CAT_ID":64715,"ELEMENT_SET_NO":999,"REV_AT_EPOCH":4238,"BSTAR":0.00031692,"MEAN_MOTION_DOT":3.691e-5,"MEAN_MOTION_DDOT":0},{"OBJECT_NAME":"STARLINK-34548","OBJECT_ID":"2025-142W","EPOCH":"2026-03-28T21:59:04.007904","MEAN_MOTION":14.98336463,"ECCENTRICITY":0.0002459,"INCLINATION":69.9999,"RA_OF_ASC_NODE":265.8594,"ARG_OF_PERICENTER":270.99,"MEAN_ANOMALY":89.0977,"EPHEMERIS_TYPE":0,"CLASSIFICATION_TYPE":"U","NORAD_CAT_ID":64716,"ELEMENT_SET_NO":999,"REV_AT_EPOCH":4234,"BSTAR":0.00019423,"MEAN_MOTION_DOT":2.226e-5,"MEAN_MOTION_DDOT":0},{"OBJECT_NAME":"STARLINK-34568","OBJECT_ID":"2025-142X","EPOCH":"2026-03-29T04:59:40.251264","MEAN_MOTION":14.98339141,"ECCENTRICITY":0.000203,"INCLINATION":70.0004,"RA_OF_ASC_NODE":265.2729,"ARG_OF_PERICENTER":268.8475,"MEAN_ANOMALY":91.2451,"EPHEMERIS_TYPE":0,"CLASSIFICATION_TYPE":"U","NORAD_CAT_ID":64717,"ELEMENT_SET_NO":999,"REV_AT_EPOCH":4241,"BSTAR":0.00056811,"MEAN_MOTION_DOT":6.693e-5,"MEAN_MOTION_DDOT":0},{"OBJECT_NAME":"STARLINK-34546","OBJECT_ID":"2025-142Y","EPOCH":"2026-03-28T21:47:02.638752","MEAN_MOTION":14.98324068,"ECCENTRICITY":0.0003088,"INCLINATION":69.9998,"RA_OF_ASC_NODE":265.8289,"ARG_OF_PERICENTER":270.6827,"MEAN_ANOMALY":89.3978,"EPHEMERIS_TYPE":0,"CLASSIFICATION_TYPE":"U","NORAD_CAT_ID":64718,"ELEMENT_SET_NO":999,"REV_AT_EPOCH":4253,"BSTAR":0.00047565,"MEAN_MOTION_DOT":5.586e-5,"MEAN_MOTION_DDOT":0},{"OBJECT_NAME":"STARLINK-34577","OBJECT_ID":"2025-142Z","EPOCH":"2026-03-28T21:05:00.151008","MEAN_MOTION":14.98336307,"ECCENTRICITY":0.0002517,"INCLINATION":70,"RA_OF_ASC_NODE":266.0944,"ARG_OF_PERICENTER":269.1882,"MEAN_ANOMALY":90.8988,"EPHEMERIS_TYPE":0,"CLASSIFICATION_TYPE":"U","NORAD_CAT_ID":64719,"ELEMENT_SET_NO":999,"REV_AT_EPOCH":4236,"BSTAR":0.00038556,"MEAN_MOTION_DOT":4.511e-5,"MEAN_MOTION_DDOT":0},{"OBJECT_NAME":"STARLINK-34572","OBJECT_ID":"2025-142AA","EPOCH":"2026-03-28T20:52:59.664864","MEAN_MOTION":14.9833384,"ECCENTRICITY":0.0002838,"INCLINATION":69.9998,"RA_OF_ASC_NODE":266.0986,"ARG_OF_PERICENTER":264.087,"MEAN_ANOMALY":95.9966,"EPHEMERIS_TYPE":0,"CLASSIFICATION_TYPE":"U","NORAD_CAT_ID":64720,"ELEMENT_SET_NO":999,"REV_AT_EPOCH":4252,"BSTAR":0.00055752,"MEAN_MOTION_DOT":6.566e-5,"MEAN_MOTION_DDOT":0},{"OBJECT_NAME":"STARLINK-34558","OBJECT_ID":"2025-142AB","EPOCH":"2026-03-28T20:53:13.576128","MEAN_MOTION":14.98350628,"ECCENTRICITY":0.0002339,"INCLINATION":69.9996,"RA_OF_ASC_NODE":266.0939,"ARG_OF_PERICENTER":269.0936,"MEAN_ANOMALY":90.9955,"EPHEMERIS_TYPE":0,"CLASSIFICATION_TYPE":"U","NORAD_CAT_ID":64721,"ELEMENT_SET_NO":999,"REV_AT_EPOCH":4233,"BSTAR":0.00028802,"MEAN_MOTION_DOT":3.347e-5,"MEAN_MOTION_DDOT":0},{"OBJECT_NAME":"STARLINK-34393","OBJECT_ID":"2025-144A","EPOCH":"2026-03-29T04:56:33.089856","MEAN_MOTION":15.30214641,"ECCENTRICITY":0.0001174,"INCLINATION":53.1598,"RA_OF_ASC_NODE":90.1262,"ARG_OF_PERICENTER":47.3992,"MEAN_ANOMALY":312.7107,"EPHEMERIS_TYPE":0,"CLASSIFICATION_TYPE":"U","NORAD_CAT_ID":64724,"ELEMENT_SET_NO":999,"REV_AT_EPOCH":4271,"BSTAR":0.0010521,"MEAN_MOTION_DOT":0.00030946,"MEAN_MOTION_DDOT":0},{"OBJECT_NAME":"STARLINK-34562","OBJECT_ID":"2025-144B","EPOCH":"2026-03-29T04:21:45.709920","MEAN_MOTION":15.30218119,"ECCENTRICITY":0.0001409,"INCLINATION":53.1595,"RA_OF_ASC_NODE":90.6859,"ARG_OF_PERICENTER":96.0845,"MEAN_ANOMALY":264.0317,"EPHEMERIS_TYPE":0,"CLASSIFICATION_TYPE":"U","NORAD_CAT_ID":64725,"ELEMENT_SET_NO":999,"REV_AT_EPOCH":4267,"BSTAR":0.0012275,"MEAN_MOTION_DOT":0.00036194,"MEAN_MOTION_DDOT":0},{"OBJECT_NAME":"STARLINK-34557","OBJECT_ID":"2025-144C","EPOCH":"2026-03-29T03:51:22.073760","MEAN_MOTION":15.30207303,"ECCENTRICITY":7.92e-5,"INCLINATION":53.1583,"RA_OF_ASC_NODE":90.5565,"ARG_OF_PERICENTER":43.7543,"MEAN_ANOMALY":316.352,"EPHEMERIS_TYPE":0,"CLASSIFICATION_TYPE":"U","NORAD_CAT_ID":64726,"ELEMENT_SET_NO":999,"REV_AT_EPOCH":4269,"BSTAR":0.0013604,"MEAN_MOTION_DOT":0.0004016,"MEAN_MOTION_DDOT":0},{"OBJECT_NAME":"STARLINK-34242","OBJECT_ID":"2025-144D","EPOCH":"2026-03-29T04:32:23.949312","MEAN_MOTION":15.30210865,"ECCENTRICITY":0.0001376,"INCLINATION":53.1589,"RA_OF_ASC_NODE":90.7269,"ARG_OF_PERICENTER":94.868,"MEAN_ANOMALY":265.2478,"EPHEMERIS_TYPE":0,"CLASSIFICATION_TYPE":"U","NORAD_CAT_ID":64727,"ELEMENT_SET_NO":999,"REV_AT_EPOCH":4269,"BSTAR":0.00097603,"MEAN_MOTION_DOT":0.00028669,"MEAN_MOTION_DDOT":0},{"OBJECT_NAME":"STARLINK-34239","OBJECT_ID":"2025-144E","EPOCH":"2026-03-29T05:14:47.090976","MEAN_MOTION":15.30215857,"ECCENTRICITY":0.0001288,"INCLINATION":53.1589,"RA_OF_ASC_NODE":90.202,"ARG_OF_PERICENTER":73.8037,"MEAN_ANOMALY":286.3105,"EPHEMERIS_TYPE":0,"CLASSIFICATION_TYPE":"U","NORAD_CAT_ID":64728,"ELEMENT_SET_NO":999,"REV_AT_EPOCH":4270,"BSTAR":0.0012668,"MEAN_MOTION_DOT":0.00037368,"MEAN_MOTION_DDOT":0},{"OBJECT_NAME":"STARLINK-34588","OBJECT_ID":"2025-144F","EPOCH":"2026-03-29T04:12:38.778912","MEAN_MOTION":15.30219468,"ECCENTRICITY":0.0001971,"INCLINATION":53.1583,"RA_OF_ASC_NODE":90.6457,"ARG_OF_PERICENTER":92.9335,"MEAN_ANOMALY":267.1892,"EPHEMERIS_TYPE":0,"CLASSIFICATION_TYPE":"U","NORAD_CAT_ID":64729,"ELEMENT_SET_NO":999,"REV_AT_EPOCH":4269,"BSTAR":0.0010918,"MEAN_MOTION_DOT":0.00032136,"MEAN_MOTION_DDOT":0},{"OBJECT_NAME":"STARLINK-34606","OBJECT_ID":"2025-144G","EPOCH":"2026-03-29T05:16:17.698656","MEAN_MOTION":15.30210232,"ECCENTRICITY":0.0001372,"INCLINATION":53.1582,"RA_OF_ASC_NODE":90.211,"ARG_OF_PERICENTER":120.2787,"MEAN_ANOMALY":239.8349,"EPHEMERIS_TYPE":0,"CLASSIFICATION_TYPE":"U","NORAD_CAT_ID":64730,"ELEMENT_SET_NO":999,"REV_AT_EPOCH":4270,"BSTAR":0.0014021,"MEAN_MOTION_DOT":0.00041411,"MEAN_MOTION_DDOT":0},{"OBJECT_NAME":"STARLINK-34552","OBJECT_ID":"2025-144H","EPOCH":"2026-03-29T05:04:09.002784","MEAN_MOTION":15.30212244,"ECCENTRICITY":0.0001249,"INCLINATION":53.1592,"RA_OF_ASC_NODE":90.1559,"ARG_OF_PERICENTER":45.8003,"MEAN_ANOMALY":314.31,"EPHEMERIS_TYPE":0,"CLASSIFICATION_TYPE":"U","NORAD_CAT_ID":64731,"ELEMENT_SET_NO":999,"REV_AT_EPOCH":4270,"BSTAR":0.0012429,"MEAN_MOTION_DOT":0.00036648,"MEAN_MOTION_DDOT":0},{"OBJECT_NAME":"STARLINK-34596","OBJECT_ID":"2025-144J","EPOCH":"2026-03-29T04:05:02.640480","MEAN_MOTION":15.30230109,"ECCENTRICITY":0.0001308,"INCLINATION":53.1577,"RA_OF_ASC_NODE":90.6119,"ARG_OF_PERICENTER":104.6574,"MEAN_ANOMALY":255.4572,"EPHEMERIS_TYPE":0,"CLASSIFICATION_TYPE":"U","NORAD_CAT_ID":64732,"ELEMENT_SET_NO":999,"REV_AT_EPOCH":4269,"BSTAR":0.0016373,"MEAN_MOTION_DOT":0.00048495,"MEAN_MOTION_DDOT":0},{"OBJECT_NAME":"STARLINK-34556","OBJECT_ID":"2025-144K","EPOCH":"2026-03-29T04:48:11.612160","MEAN_MOTION":15.30200652,"ECCENTRICITY":0.000148,"INCLINATION":53.1601,"RA_OF_ASC_NODE":87.958,"ARG_OF_PERICENTER":59.1383,"MEAN_ANOMALY":300.9763,"EPHEMERIS_TYPE":0,"CLASSIFICATION_TYPE":"U","NORAD_CAT_ID":64733,"ELEMENT_SET_NO":999,"REV_AT_EPOCH":4273,"BSTAR":0.001121,"MEAN_MOTION_DOT":0.00032989,"MEAN_MOTION_DDOT":0}]
