STARLINK-34533          
1 64715U 25142V   26088.19975369  .00003691  00000+0  31692-3 0  9992
2 64715  69.9993 265.2442 0002473 269.3707  90.7168 14.98340169 42388
STARLINK-34548          
1 64716U 25142W   26087.91601861  .00002226  00000+0  19423-3 0  9996
2 64716  69.9999 265.8594 0002459 270.9900  89.0977 14.98336463 42343
STARLINK-34568          
1 64717U 25142X   26088.20810476  .00006693  00000+0  56811-3 0  9998
2 64717  70.0004 265.2729 0002030 268.8475  91.2451 14.98339141 42412
STARLINK-34546          
1 64718U 25142Y   26087.90766943  .00005586  00000+0  47565-3 0  9990
2 64718  69.9998 265.8289 0003088 270.6827  89.3978 14.98324068 42532
STARLINK-34577          
1 64719U 25142Z   26087.87847397  .00004511  00000+0  38556-3 0  9997
2 64719  70.0000 266.0944 0002517 269.1882  90.8988 14.98336307 42369
STARLINK-34572          
1 64720U 25142AA  26087.87013501  .00006566  00000+0  55752-3 0  9990
2 64720  69.9998 266.0986 0002838 264.0870  95.9966 14.98333840 42526
STARLINK-34558          
1 64721U 25142AB  26087.87029602  .00003347  00000+0  28802-3 0  9990
2 64721  69.9996 266.0939 0002339 269.0936  90.9955 14.98350628 42332
STARLINK-34393          
1 64724U 25144A   26088.20593854  .00030946  00000+0  10521-2 0  9991
2 64724  53.1598  90.1262 0001174  47.3992 312.7107 15.30214641 42715
STARLINK-34562          
1 64725U 25144B   26088.18177905  .00036194  00000+0  12275-2 0  9993
2 64725  53.1595  90.6859 0001409  96.0845 264.0317 15.30218119 42670
STARLINK-34557          
1 64726U 25144C   26088.16067215  .00040160  00000+0  13604-2 0  9999
2 64726  53.1583  90.5565 0000792  43.7543 316.3520 15.30207303 42691
STARLINK-34242          
1 64727U 25144D   26088.18916608  .00028669  00000+0  97603-3 0  9993
2 64727  53.1589  90.7269 0001376  94.8680 265.2478 15.30210865 42690
STARLINK-34239          
1 64728U 25144E   26088.21860059  .00037368  00000+0  12668-2 0  9999
2 64728  53.1589  90.2020 0001288  73.8037 286.3105 15.30215857 42705
STARLINK-34588          
1 64729U 25144F   26088.17544883  .00032136  00000+0  10918-2 0  9993
2 64729  53.1583  90.6457 0001971  92.9335 267.1892 15.30219468 42690
STARLINK-34606          
1 64730U 25144G   26088.21964929  .00041411  00000+0  14021-2 0  9992
2 64730  53.1582  90.2110 0001372 120.2787 239.8349 15.30210232 42709
STARLINK-34552          
1 64731U 25144H   26088.21121531  .00036648  00000+0  12429-2 0  9993
2 64731  53.1592  90.1559 0001249  45.8003 314.3100 15.30212244 42702
STARLINK-34596          
1 64732U 25144J   26088.17016945  .00048495  00000+0  16373-2 0  9996
2 64732  53.1577  90.6119 0001308 104.6574 255.4572 15.30230109 42692
STARLINK-34556          
1 64733U 25144K   26088.20013440  .00032989  00000+0  11210-2 0  9994
2 64733  53.1601  87.9580 0001480  59.1383 300.9763 15.30200652 42738
